{"type": "FeatureCollection", "features": [ {"type": "Feature", "properties": {"norad_id": 31772, "name": "FENGYUN 1C DEB", "group": "fengyun-1c-debris", "lat": -19.5290268621116, "lon": -101.70867808247776, "alt_km": 951.2995999251871, "timestamp": "2025-12-03T06:58:43.521944+00:00", "meta": {"OBJECT_NAME": "FENGYUN 1C DEB", "OBJECT_ID": "1999-025CFX", "EPOCH": "2025-12-02T05:33:26.479008", "MEAN_MOTION": 14.11635308, "ECCENTRICITY": 0.0135819, "INCLINATION": 98.4716, "RA_OF_ASC_NODE": 254.2606, "ARG_OF_PERICENTER": 143.9036, "MEAN_ANOMALY": 217.1401, "EPHEMERIS_TYPE": 0, "CLASSIFICATION_TYPE": "U", "NORAD_CAT_ID": 31772, "ELEMENT_SET_NO": 999, "REV_AT_EPOCH": 70735, "BSTAR": 0.0011634, "MEAN_MOTION_DOT": 2.268e-05, "MEAN_MOTION_DDOT": 0}, "tle": {"line1": "1 31772U 99025CFX 25336.23155647  .00002268  00000+0  11634-2 0  9991", "line2": "2 31772  98.4716 254.2606 0135819 143.9036 217.1401 14.11635308707355"}}, "geometry": {"type": "Point", "coordinates": [-101.70867808247776, -19.5290268621116]}}, {"type": "Feature", "properties": {"norad_id": 31773, "name": "FENGYUN 1C DEB", "group": "fengyun-1c-debris", "lat": 35.52364949028487, "lon": 153.7199035431145, "alt_km": 639.442677729563, "timestamp": "2025-12-03T06:58:43.521954+00:00", "meta": {"OBJECT_NAME": "FENGYUN 1C DEB", "OBJECT_ID": "1999-025CFY", "EPOCH": "2025-12-01T05:23:44.833344", "MEAN_MOTION": 14.72359777, "ECCENTRICITY": 0.0038605, "INCLINATION": 98.9488, "RA_OF_ASC_NODE": 324.9883, "ARG_OF_PERICENTER": 215.5051, "MEAN_ANOMALY": 144.3583, "EPHEMERIS_TYPE": 0, "CLASSIFICATION_TYPE": "U", "NORAD_CAT_ID": 31773, "ELEMENT_SET_NO": 999, "REV_AT_EPOCH": 65005, "BSTAR": 0.0025423, "MEAN_MOTION_DOT": 0.00016254, "MEAN_MOTION_DDOT": 0}, "tle": {"line1": "1 31773U 99025CFY 25335.22482446  .00016254  00000+0  25423-2 0  9991", "line2": "2 31773  98.9488 324.9883 0038605 215.5051 144.3583 14.72359777650053"}}, "geometry": {"type": "Point", "coordinates": [153.7199035431145, 35.52364949028487]}}, {"type": "Feature", "properties": {"norad_id": 31776, "name": "FENGYUN 1C DEB", "group": "fengyun-1c-debris", "lat": -74.64215454209997, "lon": -178.77167067625132, "alt_km": 847.7130782333816, "timestamp": "2025-12-03T06:58:43.521964+00:00", "meta": {"OBJECT_NAME": "FENGYUN 1C DEB", "OBJECT_ID": "1999-025CGB", "EPOCH": "2025-12-01T15:32:26.394144", "MEAN_MOTION": 14.18453446, "ECCENTRICITY": 0.00544701, "INCLINATION": 99.0762, "RA_OF_ASC_NODE": 35.1395, "ARG_OF_PERICENTER": 7.0694, "MEAN_ANOMALY": 144.5464, "EPHEMERIS_TYPE": 0, "CLASSIFICATION_TYPE": "U", "NORAD_CAT_ID": 31776, "ELEMENT_SET_NO": 999, "REV_AT_EPOCH": 94723, "BSTAR": 0.0013902785, "MEAN_MOTION_DOT": 2.868e-05, "MEAN_MOTION_DDOT": 0}, "tle": {"line1": "1 31776U 99025CGB 25335.64752771  .00002868  00000+0  13903-2 0  9997", "line2": "2 31776  99.0762  35.1395 0054470   7.0694 144.5464 14.18453446947234"}}, "geometry": {"type": "Point", "coordinates": [-178.77167067625132, -74.64215454209997]}}, {"type": "Feature", "properties": {"norad_id": 31779, "name": "FENGYUN 1C DEB", "group": "fengyun-1c-debris", "lat": 45.42233781467785, "lon": 85.98986280250706, "alt_km": 712.1381444303506, "timestamp": "2025-12-03T06:58:43.521974+00:00", "meta": {"OBJECT_NAME": "FENGYUN 1C DEB", "OBJECT_ID": "1999-025CGE", "EPOCH": "2025-12-02T05:21:22.076352", "MEAN_MOTION": 14.41556435, "ECCENTRICITY": 0.0212911, "INCLINATION": 99.2972, "RA_OF_ASC_NODE": 255.2583, "ARG_OF_PERICENTER": 213.8398, "MEAN_ANOMALY": 144.905, "EPHEMERIS_TYPE": 0, "CLASSIFICATION_TYPE": "U", "NORAD_CAT_ID": 31779, "ELEMENT_SET_NO": 999, "REV_AT_EPOCH": 96858, "BSTAR": 0.0003889, "MEAN_MOTION_DOT": 1.594e-05, "MEAN_MOTION_DDOT": 0}, "tle": {"line1": "1 31779U 99025CGE 25336.22317218  .00001594  00000+0  38890-3 0  9996", "line2": "2 31779  99.2972 255.2583 0212911 213.8398 144.9050 14.41556435968584"}}, "geometry": {"type": "Point", "coordinates": [85.98986280250706, 45.42233781467785]}}, {"type": "Feature", "properties": {"norad_id": 31780, "name": "FENGYUN 1C DEB", "group": "fengyun-1c-debris", "lat": -48.23915406402952, "lon": -61.92784911709562, "alt_km": 758.2544550869916, "timestamp": "2025-12-03T06:58:43.521984+00:00", "meta": {"OBJECT_NAME": "FENGYUN 1C DEB", "OBJECT_ID": "1999-025CGF", "EPOCH": "2025-12-02T16:52:42.096000", "MEAN_MOTION": 14.69471581, "ECCENTRICITY": 0.0151123, "INCLINATION": 99.2852, "RA_OF_ASC_NODE": 127.9625, "ARG_OF_PERICENTER": 83.8825, "MEAN_ANOMALY": 277.9572, "EPHEMERIS_TYPE": 0, "CLASSIFICATION_TYPE": "U", "NORAD_CAT_ID": 31780, "ELEMENT_SET_NO": 999, "REV_AT_EPOCH": 98350, "BSTAR": 0.00042388, "MEAN_MOTION_DOT": 2.922e-05, "MEAN_MOTION_DDOT": 0}, "tle": {"line1": "1 31780U 99025CGF 25336.70326500  .00002922  00000+0  42388-3 0  9998", "line2": "2 31780  99.2852 127.9625 0151123  83.8825 277.9572 14.69471581983505"}}, "geometry": {"type": "Point", "coordinates": [-61.92784911709562, -48.23915406402952]}}, {"type": "Feature", "properties": {"norad_id": 31781, "name": "FENGYUN 1C DEB", "group": "fengyun-1c-debris", "lat": 57.69033816822333, "lon": -17.03963278433362, "alt_km": 991.6808766734002, "timestamp": "2025-12-03T06:58:43.521994+00:00", "meta": {"OBJECT_NAME": "FENGYUN 1C DEB", "OBJECT_ID": "1999-025CGG", "EPOCH": "2025-12-02T06:36:07.026912", "MEAN_MOTION": 14.12719425, "ECCENTRICITY": 0.0203779, "INCLINATION": 99.4973, "RA_OF_ASC_NODE": 146.5341, "ARG_OF_PERICENTER": 302.7717, "MEAN_ANOMALY": 55.3963, "EPHEMERIS_TYPE": 0, "CLASSIFICATION_TYPE": "U", "NORAD_CAT_ID": 31781, "ELEMENT_SET_NO": 999, "REV_AT_EPOCH": 68200, "BSTAR": 0.0037688, "MEAN_MOTION_DOT": 8.472e-05, "MEAN_MOTION_DDOT": 0}, "tle": {"line1": "1 31781U 99025CGG 25336.27508133  .00008472  00000+0  37688-2 0  9997", "line2": "2 31781  99.4973 146.5341 0203779 302.7717  55.3963 14.12719425682005"}}, "geometry": {"type": "Point", "coordinates": [-17.03963278433362, 57.69033816822333]}}, {"type": "Feature", "properties": {"norad_id": 31782, "name": "FENGYUN 1C DEB", "group": "fengyun-1c-debris", "lat": 29.80217188501042, "lon": -36.683894298987155, "alt_km": 801.9412952728462, "timestamp": "2025-12-03T06:58:43.522004+00:00", "meta": {"OBJECT_NAME": "FENGYUN 1C DEB", "OBJECT_ID": "1999-025CGH", "EPOCH": "2025-12-01T17:34:28.802784", "MEAN_MOTION": 14.36194439, "ECCENTRICITY": 0.00799495, "INCLINATION": 98.904, "RA_OF_ASC_NODE": 136.5548, "ARG_OF_PERICENTER": 29.379, "MEAN_ANOMALY": 346.2084, "EPHEMERIS_TYPE": 0, "CLASSIFICATION_TYPE": "U", "NORAD_CAT_ID": 31782, "ELEMENT_SET_NO": 999, "REV_AT_EPOCH": 96533, "BSTAR": 0.00037631205, "MEAN_MOTION_DOT": 1.091e-05, "MEAN_MOTION_DDOT": 0}, "tle": {"line1": "1 31782U 99025CGH 25335.73227781  .00001091  00000+0  37631-3 0  9994", "line2": "2 31782  98.9040 136.5548 0079949  29.3790 346.2084 14.36194439965330"}}, "geometry": {"type": "Point", "coordinates": [-36.683894298987155, 29.80217188501042]}}, {"type": "Feature", "properties": {"norad_id": 31783, "name": "FENGYUN 1C DEB", "group": "fengyun-1c-debris", "lat": -75.9124074475678, "lon": 129.26310936302963, "alt_km": 946.51351525872, "timestamp": "2025-12-03T06:58:43.522014+00:00", "meta": {"OBJECT_NAME": "FENGYUN 1C DEB", "OBJECT_ID": "1999-025CGJ", "EPOCH": "2025-12-01T11:52:09.590016", "MEAN_MOTION": 14.0879404, "ECCENTRICITY": 0.01046301, "INCLINATION": 98.6052, "RA_OF_ASC_NODE": 344.6618, "ARG_OF_PERICENTER": 81.6085, "MEAN_ANOMALY": 72.4582, "EPHEMERIS_TYPE": 0, "CLASSIFICATION_TYPE": "U", "NORAD_CAT_ID": 31783, "ELEMENT_SET_NO": 999, "REV_AT_EPOCH": 89062, "BSTAR": 0.00069283831, "MEAN_MOTION_DOT": 1.217e-05, "MEAN_MOTION_DDOT": 0}, "tle": {"line1": "1 31783U 99025CGJ 25335.49455544  .00001217  00000+0  69284-3 0  9997", "line2": "2 31783  98.6052 344.6618 0104630  81.6085  72.4582 14.08794040890628"}}, "geometry": {"type": "Point", "coordinates": [129.26310936302963, -75.9124074475678]}}, {"type": "Feature", "properties": {"norad_id": 31788, "name": "FENGYUN 1C DEB", "group": "fengyun-1c-debris", "lat": -73.52567810727601, "lon": 166.8032769083636, "alt_km": 1441.881429376489, "timestamp": "2025-12-03T06:58:43.522024+00:00", "meta": {"OBJECT_NAME": "FENGYUN 1C DEB", "OBJECT_ID": "1999-025CGP", "EPOCH": "2025-12-02T15:26:16.495008", "MEAN_MOTION": 13.44999859, "ECCENTRICITY": 0.04642981, "INCLINATION": 102.556, "RA_OF_ASC_NODE": 117.0923, "ARG_OF_PERICENTER": 109.1347, "MEAN_ANOMALY": 277.0195, "EPHEMERIS_TYPE": 0, "CLASSIFICATION_TYPE": "U", "NORAD_CAT_ID": 31788, "ELEMENT_SET_NO": 999, "REV_AT_EPOCH": 90469, "BSTAR": 0.0032555531, "MEAN_MOTION_DOT": 3.616e-05, "MEAN_MOTION_DDOT": 0}, "tle": {"line1": "1 31788U 99025CGP 25336.64324647  .00003616  00000+0  32556-2 0  9995", "line2": "2 31788 102.5560 117.0923 0464298 109.1347 277.0195 13.44999859904699"}}, "geometry": {"type": "Point", "coordinates": [166.8032769083636, -73.52567810727601]}}, {"type": "Feature", "properties": {"norad_id": 31805, "name": "FENGYUN 1C DEB", "group": "fengyun-1c-debris", "lat": -12.485610533216212, "lon": -35.92596414546457, "alt_km": 1195.6946409133725, "timestamp": "2025-12-03T06:58:43.522034+00:00", "meta": {"OBJECT_NAME": "FENGYUN 1C DEB", "OBJECT_ID": "1999-025CGT", "EPOCH": "2025-12-01T05:23:40.108128", "MEAN_MOTION": 14.02670631, "ECCENTRICITY": 0.0447098, "INCLINATION": 98.3662, "RA_OF_ASC_NODE": 320.3008, "ARG_OF_PERICENTER": 191.6465, "MEAN_ANOMALY": 167.4086, "EPHEMERIS_TYPE": 0, "CLASSIFICATION_TYPE": "U", "NORAD_CAT_ID": 31805, "ELEMENT_SET_NO": 999, "REV_AT_EPOCH": 62202, "BSTAR": 0.0013339, "MEAN_MOTION_DOT": 4.977e-05, "MEAN_MOTION_DDOT": 0}, "tle": {"line1": "1 31805U 99025CGT 25335.22476977  .00004977  00000+0  13339-2 0  9991", "line2": "2 31805  98.3662 320.3008 0447098 191.6465 167.4086 14.02670631622027"}}, "geometry": {"type": "Point", "coordinates": [-35.92596414546457, -12.485610533216212]}}]}